#dP2023 12 24 12  0  0.00000000      96 __u+U IGS20 EXT  IAC
## 2294  43200.00000000   900.00000000 60302 0.5000000000000
+  119   C06C07C08C09C10C11C12C13C14C16C19C20C21C22C23C24C25
+        C26C27C28C29C30C32C33C34C35C36C37C39C40C41C42C43C44
+        C45C46E02E03E04E05E07E08E09E10E11E12E13E14E15E18E19
+        E21E24E25E26E27E30E31E33E34E36G01G02G03G04G05G06G07
+        G08G09G10G11G12G13G14G15G16G17G18G19G20G21G22G23G24
+        G25G26G27G28G29G30G31G32J02J03J04R01R02R03R04R05R07
+        R08R09R11R12R13R14R15R16R17R18R19R20R21R22R24R25R26
++         9 10  9  8 10  8  9  9  9  9  8 10  7  8  9  8  8
++         8  9 10 10  9 11  8  9  7  9  8 12 10  8  8  7  7
++         9  9  7  7  6  8  7  7  8  8  8  7  7  7  8  7  7
++         6  7  7  7  7  8  7  7  8  7  7  6  7  7  7  9  6
++         7  7  7  8  7  7  6  8  7  9  7  7  7  7  7  7  8
++         7  7  7  7  7  6  6  7 11  8  6  9  8  7  8  7  7
++         7  9  7  8  9  7  8  8  9 10  8  9  8  6  7  6  8
%c M  cc GPS ccc cccc cccc cccc cccc ccccc ccccc ccccc ccccc
%c cc cc ccc ccc cccc cccc cccc cccc ccccc ccccc ccccc ccccc
%f  0.0000000  0.000000000  0.00000000000  0.000000000000000
%f  0.0000000  0.000000000  0.00000000000  0.000000000000000
%i    0    0    0    0      0      0      0      0         0
%i    0    0    0    0      0      0      0      0         0
/* IAC                                ULTRA-RAPID PREDICTION
/* S/V CLOCKS ARE ALIGNED TO GNSS TIME                      
/* G:C1WC2W R:C1PC2P E:C1XC5X C:C2IC6I J:C1CC2S             
/* PCV:IGS20_2290 OL/AL:FES2004  NONE     YN ORB:CoN CLK:CoN
*  2023 12 25  4 45  0.00000000
PC06 -11211.907819  23037.701327  33474.718316    225.980147
PC07 -13689.392676  39247.531498  -7608.897720   -529.129892
PC08   2065.216015  34583.865676 -23887.094125    158.461264
PC09   1779.022474  25088.222342  34316.406534   -262.611971
PC10  -8372.304837  39422.262439 -12940.828302    -66.577455
PC11  25258.491992   3372.883432 -11284.501981    323.720660
PC12   9450.020513  13501.365437 -22472.733893    815.743069
PC13   6232.432093  36873.938947 -19039.152283    399.793506
PC14  14799.873453   5216.200606  23087.689710   -177.032877
PC16 -12410.782372  22345.910187  33729.979508   -244.440725
PC19 -17083.989531   5736.712998 -21289.811532   -947.187119
PC20 -11015.278176 -13486.099103 -21793.263139     -2.275070
PC21  -2355.648768  26297.305889   9076.141175   -966.202776
PC22 -13732.419349  22762.235694  -8525.186375   -173.499271
PC23  11228.066077 -11948.918367 -22587.008504   -798.925574
PC24  19239.113116  20141.123468  -1456.311654    725.269754
PC25  21360.388938   4616.717754 -17356.458363    286.010478
PC26   6929.207246  22799.337345  14472.184186   -225.071285
PC27    333.105219 -16223.558918  22688.782579    247.079541
PC28  18243.191188 -14496.161985  15364.863844    187.108457
PC29 -27407.793370   4202.199826   3139.513393    219.104724
PC30 -18598.576062  -9103.681537  18693.908798    -11.445450
PC32   2232.909859 -26331.669104  -8944.472651   -546.125505
PC33  17063.665519  -5680.759686  21336.197049   -941.802037
PC34  19881.128304   8227.479577 -17789.700257    332.364939
PC35 -17635.213794  15225.198930 -15340.494600    472.906074
PC36 -21457.376318  -5858.134498  16874.695637    -79.297787
PC37  -5907.750106 -22847.179511 -14915.654859   -931.508890
PC39 -18343.746583  21246.036636  31431.859458     -6.290705
PC40 -21085.442633  36148.651469  -6211.063942    -49.230667
PC41  14016.487513 -22283.961440   9301.019712   -875.204800
PC42  10203.898341  15040.046359  21222.883516   -475.530634
PC43  27404.682304  -3523.862174  -4005.386187     53.683077
PC44    154.994024  16401.221389 -22583.143808    333.224335
PC45 -10824.395932  12188.883375  22637.787203    -57.765457
PC46 -19642.501190 -19705.742448   2426.818395   -110.221922
PE02  15643.729186  16170.114703 -19231.488949     89.445832
PE03  18839.561259   4945.747424  22278.709166    -82.430555
PE04 -25431.371744  12254.019022  -8895.137703   -287.947388
PE05   1381.039737  19087.249690  22579.120027   4703.791339
PE07  17352.935392 -22100.670998  -9299.685436    -94.839041
PE08  25409.827968 -11842.296325   9487.560579   -197.474466
PE09 -17476.940821  22046.387095   9213.364839   -275.196662
PE10 -19071.964631   7300.454760 -21427.261208   -588.961265
PE11  -8818.077970  13700.732454 -24712.384032   3275.169381
PE12 -25354.739711    547.591305 -15246.497544   -833.521122
PE13   9556.692229 -13275.410767  24681.418904    -19.753262
PE14 -26814.757878  13721.575484   5208.933734     -8.660892
PE15  25604.580111   -155.241338  14869.377461    -76.525273
PE18  22787.958560  -3164.963541 -12231.057633    133.594963
PE19 -17039.600625  -6979.428995 -23171.949625   -947.151833
PE21  -6713.842821 -28590.631411   3730.001482   -570.530685
PE24  -6967.828240  24572.050462  14919.387087   -504.691840
PE25   6475.190267  28680.069071  -3368.450206     -1.483029
PE26 -12435.752152 -18555.708133  19435.271003    319.595549
PE27   6575.282999 -24903.473354 -14603.568862   -232.580760
PE30  15991.210033  -6217.439013 -24136.628804   -769.573177
PE31 -15844.287008   6563.817306  24126.644885    -12.381175
PE33 -26188.258962 -13184.533713   4102.030285      4.797508
PE34  26441.840367  12821.237756  -3511.381261    -85.241010
PE36  11837.478847  18429.751365 -19902.129230   -162.432014
PG01  21502.552765  14214.312093  -7468.236398    164.543295
PG02  17812.897796  14600.307710 -12922.089009   -510.722242
PG03  11521.852352  20345.609010  12556.919557     79.082034
PG04  13098.324134   8769.320380  21403.510960    248.494086
PG05  -6252.976829 -25726.100782  -1554.209929   -155.412607
PG06  12930.998383  -9754.467112  21141.266622    467.302687
PG07  25396.929193   4929.063401  -6541.045454    -20.485914
PG08   5779.212163  14832.165530 -21284.170175   -158.674805
PG09  20815.862443  -2551.036227  16248.204755     37.395909
PG10 -11549.652102  12699.018945 -19972.027408    -66.661169
PG11   1441.644375 -15617.501438  21465.760881   -514.197002
PG12 -10164.402362 -21233.436505  12089.038300   -460.966744
PG13   5679.943084 -18181.970993 -18619.314426    609.123284
PG14  13961.234477  -8775.244497 -20765.738035    280.245605
PG15  -7561.691173 -14834.400984 -21149.097295    110.367941
PG16   -948.983857  25977.138456   3747.723338   -397.609511
PG17  22930.144088 -12800.544515  -4017.359424    721.362280
PG18 -24867.361376  -3782.630609  -8798.208785   -515.142325
PG19  20167.035557 -16391.851671   4282.963874    417.187354
PG20    804.029408 -23916.212089  11767.615683    394.933646
PG21  14794.646346  15663.057486 -15627.808709    140.520526
PG22  10943.824275 -16773.858815 -17153.349232     60.020456
PG23 -15151.128517  -1179.578650 -21783.680465    122.387043
PG24 -17068.411939 -15572.387907 -13862.859529   -400.458892
PG25 -15351.313597 -10265.375345  18855.076326    482.789564
PG26  -5025.731503  22164.856743  13298.121404    206.377417
PG27  -7755.078942  20108.419184 -15496.612123    -87.140321
PG28 -15556.809813   8990.944494  19532.443577    -79.298953
PG29 -20472.435674     44.851264  16931.193756   -609.470412
PG30  21240.842260  -3912.332702 -15508.508397   -453.507079
PG31  -7333.818698  13463.968144  21494.743543   -226.861038
PG32 -20991.738405  16019.152316  -1241.700223   -599.464578
PJ02 -28301.228901  25021.550970  23865.415262     -0.747264
PJ03 -29247.474826  18013.408004 -19686.172296    -13.420883
PJ04 -21619.246961  34289.005895  -6865.244448     75.007944
PR01  14412.886484  -7512.645453  19656.856866     72.945840
PR02  14404.099695 -20416.971208   5359.777342    -22.348648
PR03   5708.797482 -21860.987522 -11860.008519     91.567984
PR04  -5549.030952 -11140.249838 -22242.009870    216.797278
PR05 -14030.358912   5410.068533 -20585.766713    124.351852
PR07  -5065.376542  21499.455578  12746.748011     72.093750
PR08   5939.769684  10910.761375  22329.572329    -73.804429
PR09  -5624.085952  11489.341190  22094.918962    160.619712
PR11  14859.440571  20366.049486  -3929.682028   -223.325249
PR12  14879.635171   6159.402112 -19757.488658     34.851260
PR13   7129.302650  -9192.939183 -22721.395896    -42.623319
PR14  -6644.250214 -21585.747908 -11836.493046     25.826321
PR15 -15131.790588 -19819.374289   5383.800070     83.676411
PR16 -14896.981422  -6404.490359  19682.452423     21.864437
PR17   -459.716639 -10597.583700  23213.328847     46.475935
PR18 -17203.975400  -7713.515331  17176.792040    118.612278
PR19 -25101.801151  -2414.321819   3858.990023   -259.553819
PR20 -18599.559159   6629.177374 -16107.721610   -105.713714
PR21    883.570304  10501.841188 -23220.265444    -63.635518
PR22  17882.176812   8158.014369 -16234.393567     99.920707
PR24  17859.918882  -7914.400330  16418.290338    -37.270325
PR25     16.282041  10907.903448 -23047.130640      5.526956
PR26   5476.013617  11586.178864  22077.066848    -22.342379
EOF
